start=new Date('2022-02-14T00:00:00.000Z').valueOf();
sats=[{"SEMIMAJOR_AXIS":"6925.370","ELEMENT_SET_NO":"999","RA_OF_ASC_NODE":"7.9172","INCLINATION":"53.0549","DECAY_DATE":null,"ECCENTRICITY":"0.00017000","GP_ID":"195901315","EPOCH":"2022-02-13T17:11:03.674400","BSTAR":"-0.00000208690000","CLASSIFICATION_TYPE":"U","TIME_SYSTEM":"UTC","RCS_SIZE":"LARGE","MEAN_ELEMENT_THEORY":"SGP4","TLE_LINE1":"1 48436U 21040J   22044.71601475 -.00000313  00000-0 -20869-5 0  9994","LAUNCH_DATE":"2021-05-09","CENTER_NAME":"EARTH","OBJECT_ID":"2021-040J","SITE":"AFETR","PERIOD":"95.593","NORAD_CAT_ID":"48436","COUNTRY_CODE":"US","MEAN_MOTION":"15.06392941","FILE":"3299833","APOAPSIS":"548.413","OBJECT_NAME":"STARLINK-2639","MEAN_MOTION_DOT":"-0.00000313","MEAN_MOTION_DDOT":"0.0000000000000","MEAN_ANOMALY":"300.9493","OBJECT_TYPE":"PAYLOAD","REF_FRAME":"TEME","EPHEMERIS_TYPE":"0","ARG_OF_PERICENTER":"59.1663","TLE_LINE2":"2 48436  53.0549   7.9172 0001700  59.1663 300.9493 15.06392941 43259","PERIAPSIS":"546.058","REV_AT_EPOCH":"4325"},{"APOAPSIS":"548.479","OBJECT_NAME":"STARLINK-2642","MEAN_MOTION_DDOT":"0.0000000000000","MEAN_ANOMALY":"303.2145","MEAN_MOTION_DOT":"-0.00005454","OBJECT_TYPE":"PAYLOAD","REF_FRAME":"TEME","EPHEMERIS_TYPE":"0","ARG_OF_PERICENTER":"56.9009","TLE_LINE2":"2 48437  53.0463  19.8027 0001722  56.9009 303.2145 15.06376315 43885","REV_AT_EPOCH":"4388","PERIAPSIS":"546.094","SEMIMAJOR_AXIS":"6925.421","ELEMENT_SET_NO":"999","RA_OF_ASC_NODE":"19.8027","INCLINATION":"53.0463","DECAY_DATE":null,"ECCENTRICITY":"0.00017220","GP_ID":"195869450","EPOCH":"2022-02-13T07:15:17.166528","BSTAR":"-0.00034775000000","CLASSIFICATION_TYPE":"U","TIME_SYSTEM":"UTC","RCS_SIZE":"LARGE","TLE_LINE1":"1 48437U 21040K   22044.30228202 -.00005454  00000-0 -34775-3 0  9993","MEAN_ELEMENT_THEORY":"SGP4","LAUNCH_DATE":"2021-05-09","CENTER_NAME":"EARTH","OBJECT_ID":"2021-040K","SITE":"AFETR","PERIOD":"95.594","COUNTRY_CODE":"US","MEAN_MOTION":"15.06376315","NORAD_CAT_ID":"48437","FILE":"3299535"},{"COUNTRY_CODE":"US","MEAN_MOTION":"15.06393181","NORAD_CAT_ID":"48438","FILE":"3299685","OBJECT_ID":"2021-040L","SITE":"AFETR","PERIOD":"95.593","TLE_LINE1":"1 48438U 21040L   22044.38059625 -.00003190  00000-0 -19534-3 0  9994","MEAN_ELEMENT_THEORY":"SGP4","LAUNCH_DATE":"2021-05-09","CENTER_NAME":"EARTH","RCS_SIZE":"LARGE","CLASSIFICATION_TYPE":"U","TIME_SYSTEM":"UTC","GP_ID":"195893874","ECCENTRICITY":"0.00020580","EPOCH":"2022-02-13T09:08:03.516000","BSTAR":"-0.00019534000000","DECAY_DATE":null,"ELEMENT_SET_NO":"999","SEMIMAJOR_AXIS":"6925.369","RA_OF_ASC_NODE":"9.4390","INCLINATION":"53.0561","REV_AT_EPOCH":"4275","PERIAPSIS":"545.809","EPHEMERIS_TYPE":"0","ARG_OF_PERICENTER":"47.5546","TLE_LINE2":"2 48438  53.0561   9.4390 0002058  47.5546 312.5616 15.06393181 42759","REF_FRAME":"TEME","OBJECT_TYPE":"PAYLOAD","MEAN_ANOMALY":"312.5616","MEAN_MOTION_DDOT":"0.0000000000000","MEAN_MOTION_DOT":"-0.00003190","OBJECT_NAME":"STARLINK-2640","APOAPSIS":"548.660"},{"MEAN_ELEMENT_THEORY":"SGP4","TLE_LINE1":"1 48439U 21040M   22044.31057084 -.00008073  00000-0 -52384-3 0  9990","CENTER_NAME":"EARTH","LAUNCH_DATE":"2021-05-09","RCS_SIZE":"LARGE","COUNTRY_CODE":"US","NORAD_CAT_ID":"48439","MEAN_MOTION":"15.06388432","FILE":"3299840","OBJECT_ID":"2021-040M","SITE":"AFETR","PERIOD":"95.593","DECAY_DATE":null,"SEMIMAJOR_AXIS":"6925.384","RA_OF_ASC_NODE":"9.7534","ELEMENT_SET_NO":"999","INCLINATION":"53.0552","CLASSIFICATION_TYPE":"U","TIME_SYSTEM":"UTC","GP_ID":"195900819","ECCENTRICITY":"0.00015270","EPOCH":"2022-02-13T07:27:13.320576","BSTAR":"-0.00052384000000","EPHEMERIS_TYPE":"0","ARG_OF_PERICENTER":"59.8199","TLE_LINE2":"2 48439  53.0552   9.7534 0001527  59.8199 300.2941 15.06388432 44023","REF_FRAME":"TEME","REV_AT_EPOCH":"4402","PERIAPSIS":"546.192","OBJECT_NAME":"STARLINK-2583","APOAPSIS":"548.307","OBJECT_TYPE":"PAYLOAD","MEAN_MOTION_DDOT":"0.0000000000000","MEAN_MOTION_DOT":"-0.00008073","MEAN_ANOMALY":"300.2941"},{"OBJECT_TYPE":"PAYLOAD","MEAN_MOTION_DDOT":"0.0000000000000","MEAN_MOTION_DOT":"-0.00006563","MEAN_ANOMALY":"301.8647","OBJECT_NAME":"STARLINK-2682","APOAPSIS":"548.462","REV_AT_EPOCH":"4319","PERIAPSIS":"546.057","ARG_OF_PERICENTER":"58.2510","EPHEMERIS_TYPE":"0","TLE_LINE2":"2 48440  53.0553   9.7686 0001736  58.2510 301.8647 15.06384969 43194","REF_FRAME":"TEME","TIME_SYSTEM":"UTC","CLASSIFICATION_TYPE":"U","ECCENTRICITY":"0.00017360","GP_ID":"195865762","BSTAR":"-0.00042224000000","EPOCH":"2022-02-13T07:21:54.306720","DECAY_DATE":null,"SEMIMAJOR_AXIS":"6925.395","RA_OF_ASC_NODE":"9.7686","ELEMENT_SET_NO":"999","INCLINATION":"53.0553","MEAN_MOTION":"15.06384969","COUNTRY_CODE":"US","NORAD_CAT_ID":"48440","FILE":"3299393","SITE":"AFETR","OBJECT_ID":"2021-040N","PERIOD":"95.593","TLE_LINE1":"1 48440U 21040N   22044.30687855 -.00006563  00000-0 -42224-3 0  9990","MEAN_ELEMENT_THEORY":"SGP4","CENTER_NAME":"EARTH","LAUNCH_DATE":"2021-05-09","RCS_SIZE":"LARGE"},{"MEAN_MOTION_DOT":"-0.00005242","MEAN_MOTION_DDOT":"0.0000000000000","MEAN_ANOMALY":"296.9959","OBJECT_TYPE":"PAYLOAD","APOAPSIS":"548.441","OBJECT_NAME":"STARLINK-2702","REV_AT_EPOCH":"4273","PERIAPSIS":"546.074","REF_FRAME":"TEME","ARG_OF_PERICENTER":"63.1205","EPHEMERIS_TYPE":"0","TLE_LINE2":"2 48441  53.0568  10.0771 0001709  63.1205 296.9959 15.06385695 42733","ECCENTRICITY":"0.00017090","GP_ID":"195893623","BSTAR":"-0.00033336000000","EPOCH":"2022-02-13T05:41:03.738048","TIME_SYSTEM":"UTC","CLASSIFICATION_TYPE":"U","SEMIMAJOR_AXIS":"6925.392","ELEMENT_SET_NO":"999","RA_OF_ASC_NODE":"10.0771","INCLINATION":"53.0568","DECAY_DATE":null,"SITE":"AFETR","OBJECT_ID":"2021-040P","PERIOD":"95.593","MEAN_MOTION":"15.06385695","COUNTRY_CODE":"US","NORAD_CAT_ID":"48441","FILE":"3299685","RCS_SIZE":"LARGE","TLE_LINE1":"1 48441U 21040P   22044.23684882 -.00005242  00000-0 -33336-3 0  9997","MEAN_ELEMENT_THEORY":"SGP4","LAUNCH_DATE":"2021-05-09","CENTER_NAME":"EARTH"},{"TLE_LINE1":"1 48442U 21040Q   22044.36586482 -.00001412  00000-0 -75907-4 0  9995","MEAN_ELEMENT_THEORY":"SGP4","LAUNCH_DATE":"2021-05-09","CENTER_NAME":"EARTH","RCS_SIZE":"LARGE","COUNTRY_CODE":"US","MEAN_MOTION":"15.06387176","NORAD_CAT_ID":"48442","FILE":"3299685","OBJECT_ID":"2021-040Q","SITE":"AFETR","PERIOD":"95.593","DECAY_DATE":null,"RA_OF_ASC_NODE":"9.4837","SEMIMAJOR_AXIS":"6925.388","ELEMENT_SET_NO":"999","INCLINATION":"53.0566","CLASSIFICATION_TYPE":"U","TIME_SYSTEM":"UTC","ECCENTRICITY":"0.00015870","GP_ID":"195894374","EPOCH":"2022-02-13T08:46:50.720448","BSTAR":"-0.00007590700000","EPHEMERIS_TYPE":"0","ARG_OF_PERICENTER":"68.4341","TLE_LINE2":"2 48442  53.0566   9.4837 0001587  68.4341 291.6817 15.06387176 42753","REF_FRAME":"TEME","PERIAPSIS":"546.154","REV_AT_EPOCH":"4275","OBJECT_NAME":"STARLINK-2644","APOAPSIS":"548.352","OBJECT_TYPE":"PAYLOAD","MEAN_MOTION_DDOT":"0.0000000000000","MEAN_ANOMALY":"291.6817","MEAN_MOTION_DOT":"-0.00001412"},{"MEAN_ANOMALY":"292.9749","MEAN_MOTION_DDOT":"0.0000000000000","MEAN_MOTION_DOT":"-0.00004075","OBJECT_TYPE":"PAYLOAD","APOAPSIS":"548.316","OBJECT_NAME":"STARLINK-2663","PERIAPSIS":"546.201","REV_AT_EPOCH":"4275","REF_FRAME":"TEME","TLE_LINE2":"2 48443  53.0560   9.5037 0001527  67.1401 292.9749 15.06385372 42752","EPHEMERIS_TYPE":"0","ARG_OF_PERICENTER":"67.1401","EPOCH":"2022-02-13T08:41:31.464672","BSTAR":"-0.00025491000000","GP_ID":"195894112","ECCENTRICITY":"0.00015270","CLASSIFICATION_TYPE":"U","TIME_SYSTEM":"UTC","INCLINATION":"53.0560","SEMIMAJOR_AXIS":"6925.393","RA_OF_ASC_NODE":"9.5037","ELEMENT_SET_NO":"999","DECAY_DATE":null,"PERIOD":"95.593","OBJECT_ID":"2021-040R","SITE":"AFETR","FILE":"3299685","COUNTRY_CODE":"US","MEAN_MOTION":"15.06385372","NORAD_CAT_ID":"48443","RCS_SIZE":"LARGE","LAUNCH_DATE":"2021-05-09","CENTER_NAME":"EARTH","MEAN_ELEMENT_THEORY":"SGP4","TLE_LINE1":"1 48443U 21040R   22044.36216973 -.00004075  00000-0 -25491-3 0  9991"},{"PERIAPSIS":"546.167","REV_AT_EPOCH":"4276","TLE_LINE2":"2 48444  53.0563   9.2288 0001609  69.9957 290.1206 15.06378039 42769","EPHEMERIS_TYPE":"0","ARG_OF_PERICENTER":"69.9957","REF_FRAME":"TEME","OBJECT_TYPE":"PAYLOAD","MEAN_ANOMALY":"290.1206","MEAN_MOTION_DDOT":"0.0000000000000","MEAN_MOTION_DOT":"-0.00006450","OBJECT_NAME":"STARLINK-2645","APOAPSIS":"548.395","FILE":"3299685","COUNTRY_CODE":"US","NORAD_CAT_ID":"48444","MEAN_MOTION":"15.06378039","PERIOD":"95.594","OBJECT_ID":"2021-040S","SITE":"AFETR","CENTER_NAME":"EARTH","LAUNCH_DATE":"2021-05-09","TLE_LINE1":"1 48444U 21040S   22044.42483999 -.00006450  00000-0 -41476-3 0  9993","MEAN_ELEMENT_THEORY":"SGP4","RCS_SIZE":"LARGE","CLASSIFICATION_TYPE":"U","TIME_SYSTEM":"UTC","EPOCH":"2022-02-13T10:11:46.175136","BSTAR":"-0.00041476000000","GP_ID":"195894862","ECCENTRICITY":"0.00016090","DECAY_DATE":null,"INCLINATION":"53.0563","SEMIMAJOR_AXIS":"6925.416","ELEMENT_SET_NO":"999","RA_OF_ASC_NODE":"9.2288"},{"PERIOD":"95.594","SITE":"AFETR","OBJECT_ID":"2021-040T","FILE":"3299840","COUNTRY_CODE":"US","NORAD_CAT_ID":"48445","MEAN_MOTION":"15.06377680","RCS_SIZE":"LARGE","CENTER_NAME":"EARTH","LAUNCH_DATE":"2021-05-09","TLE_LINE1":"1 48445U 21040T   22044.62020306 -.00002510  00000-0 -14974-3 0  9991","MEAN_ELEMENT_THEORY":"SGP4","BSTAR":"-0.00014974000000","EPOCH":"2022-02-13T14:53:05.544384","ECCENTRICITY":"0.00016650","GP_ID":"195901325","TIME_SYSTEM":"UTC","CLASSIFICATION_TYPE":"U","INCLINATION":"53.0560","SEMIMAJOR_AXIS":"6925.417","ELEMENT_SET_NO":"999","RA_OF_ASC_NODE":"8.3603","DECAY_DATE":null,"REV_AT_EPOCH":"4407","PERIAPSIS":"546.129","REF_FRAME":"TEME","TLE_LINE2":"2 48445  53.0560   8.3603 0001665  68.1744 291.9422 15.06377680 44071","ARG_OF_PERICENTER":"68.1744","EPHEMERIS_TYPE":"0","MEAN_MOTION_DOT":"-0.00002510","MEAN_MOTION_DDOT":"0.0000000000000","MEAN_ANOMALY":"291.9422","OBJECT_TYPE":"PAYLOAD","APOAPSIS":"548.435","OBJECT_NAME":"STARLINK-2634"}];
